MATS                    
1 54227U 22147A   26068.98542601  .00004118  00000+0  29671-3 0  9994
2 54227  97.6844  71.0610 0012971 166.9988 193.1575 15.04668680182840
STARLINK-5684           
1 55453U 23015E   26068.11068977  .00083119  00000+0  59789-2 0  9995
2 55453  43.0044 329.4179 0001749 264.1841  95.8802 15.03263735170668
